TDRS 3                  
1 19548U 88091B   26184.78479036 -.00000290  00000+0  00000+0 0  9998
2 19548  12.5892 340.8876 0036999 356.3922 178.1318  1.00267797125554
FLTSATCOM 8 (USA 46)    
1 20253U 89077A   26185.31842794 -.00000359  00000+0  00000+0 0  9999
2 20253  12.4166 351.0603 0003735  63.2120 108.4126  1.00268616260734
SKYNET 4C               
1 20776U 90079A   26185.48984979  .00000006  00000+0  00000+0 0  9991
2 20776  13.3327 349.7007 0003320 130.3756 235.1645  0.98576416   211
TDRS 5                  
1 21639U 91054B   26185.38693008  .00000091  00000+0  00000+0 0  9997
2 21639  14.0688 353.6469 0006758 257.4918   2.8898  1.00270066127881
TDRS 6                  
1 22314U 93003B   26185.35635440 -.00000289  00000+0  00000+0 0  9997
2 22314  14.1830 356.9306 0008858 180.2177 187.4227  1.00265087122586
UFO 2 (USA 95)          
1 22787U 93056A   26185.15659709  .00000133  00000+0  00000+0 0  9998
2 22787  11.9006   3.4606 0004131   9.3393 354.4337  1.00276768118725
USA 99 (MILSTAR-1 1)    
1 22988U 94009A   26185.56042191 -.00000024  00000+0  00000+0 0  9996
2 22988  17.6510  27.5232 0001284 183.6473 181.2170  0.98720802 33124
UFO 4 (USA 108)         
1 23467U 95003A   26185.32754767 -.00000013  00000+0  00000+0 0  9995
2 23467   9.6808  13.0763 0003038  86.1637 113.2589  1.00274435115125
TDRS 7                  
1 23613U 95035B   26185.45374036 -.00000232  00000+0  00000+0 0  9997
2 23613  13.3699 348.0707 0011698  83.4407 103.4428  1.00276740113428
USA 115 (MILSTAR-1 2)   
1 23712U 95060A   26185.48954162 -.00000195  00000+0  00000+0 0  9990
2 23712  14.0785   3.6125 0006434 118.0225 247.0722  1.00272629 33060
INMARSAT 3-F1           
1 23839U 96020A   26185.25654650  .00000001  00000+0  00000+0 0  9996
2 23839  10.6357  46.4761 0004053  75.3304 139.5834  0.99978386110421
INMARSAT 3-F2           
1 24307U 96053A   26185.53356252 -.00000340  00000+0  00000+0 0  9998
2 24307   9.8952  53.7585 0006431  45.0683 148.2025  0.99996954109095
INMARSAT 3-F3           
1 24674U 96070A   26184.79954300  .00000108  00000+0  00000+0 0  9990
2 24674  10.3533  49.4928 0003337  59.1293 126.4527  0.99990411108076
USA 134                 
1 25019U 97065A   26185.55643522 -.00000055  00000+0  00000+0 0  9997
2 25019  12.8033  21.5871 0002451 344.4565   4.3999  1.00271761 33121
INMARSAT 3-F5           
1 25153U 98006B   26185.49664832 -.00000283  00000+0  00000+0 0  9995
2 25153   9.7291  53.0842 0004126  51.7503 302.4771  1.00269525104067
ABS-6                   
1 25924U 99053A   26185.46760792 -.00000107  00000+0  00000+0 0  9998
2 25924   0.0362 279.6449 0002996 163.3025 166.8630  1.00271823 98014
UFO 10 (USA 146)        
1 25967U 99063A   26184.36220194 -.00000181  00000+0  00000+0 0  9993
2 25967   9.8455  27.1245 0002084  90.6970 270.9591  1.00274578 97517
ASIASTAR                
1 26107U 00016A   26185.59946872 -.00000325  00000+0  00000+0 0  9994
2 26107   9.1673  57.9652 0004396  47.6016 137.8309  1.00268449 96093
USA 149 (DSP 20)        
1 26356U 00024A   26185.18956343  .00000103  00000+0  00000+0 0  9991
2 26356  13.1824  11.7258 0001314 309.3793 224.3598  1.00282702 33089
TDRS 8                  
1 26388U 00034A   26185.59539537 -.00000189  00000+0  00000+0 0  9999
2 26388  12.7105  31.1729 0004484  28.3575 162.2218  1.00274374 95350
NSS-11                  
1 26554U 00059A   26185.54224988  .00000036  00000+0  00000+0 0  9997
2 26554   2.1685  81.1938 0003020  21.5298 191.0328  1.00271986 41461
USA 153                 
1 26575U 00065A   26184.87368343 -.00000318  00000+0  00000+0 0  9990
2 26575  11.6521  35.2782 0002327  53.3390 282.1608  1.00276247 33098
AMC-6                   
1 26580U 00067A   26185.28377997  .00000100  00000+0  00000+0 0  9997
2 26580   0.1930  83.5317 0003944  29.7815 136.1163  1.00270800 94063
USA 157 (MILSTAR-2 2)   
1 26715U 01009A   26185.24350551  .00000117  00000+0  00000+0 0  9995
2 26715  11.5602  19.6521 0040174 178.3978  21.7894  1.00270292 33113
INTELSAT 902 (IS-902)   
1 26900U 01039A   26185.14099701 -.00000274  00000+0  00000+0 0  9995
2 26900   6.1589  71.5754 0004288  29.8464 181.3792  1.00271305 90865
USA 164 (MILSTAR-2 3)   
1 27168U 02001A   26185.22598403  .00000105  00000+0  00000+0 0  9996
2 27168  11.1986  21.7973 0098969   8.9568 351.7637  1.00273637 33128
INTELSAT 904 (IS-904)   
1 27380U 02007A   26185.17261547 -.00000217  00000+0  00000+0 0  9993
2 27380   6.9595  68.9807 0006133  17.8107 226.0553  1.00270910 51932
DIRECTV 5 (TEMPO 1)     
1 27426U 02023A   26184.39558781 -.00000048  00000+0  00000+0 0  9996
2 27426   4.9166  75.1124 0003513  37.3501 201.2642  1.00271698 88287
INTELSAT 905 (IS-905)   
1 27438U 02027A   26185.46503137  .00000103  00000+0  00000+0 0  9998
2 27438   6.7939  69.5924 0003909  37.3315 205.7634  1.00272861 51536
GALAXY 3C (G-3C)        
1 27445U 02030A   26185.55990191 -.00000142  00000+0  00000+0 0  9994
2 27445   3.7748  77.7551 0001834  31.5945 279.9613  1.00271698 46661
INTELSAT 906 (IS-906)   
1 27513U 02041A   26185.23491074  .00000023  00000+0  00000+0 0  9990
2 27513   5.8447  72.7112 0004048  12.2630 345.9757  1.00270893 87193
